STARLINK-5003           
1 53905U 22119V   25309.96583975  .00000624  00000+0  57262-4 0  9995
2 53905  53.2149 149.7585 0001486  88.1515 271.9647 15.08841951173148
STARLINK-5054           
1 53906U 22119W   25308.59314043  .00000401  00000+0  43259-4 0  9996
2 53906  53.2144 155.4168 0001335  83.8447 276.2697 15.08840885172949
STARLINK-5057           
1 53908U 22119Y   25309.29607574  .00000688  00000+0  61269-4 0  9998
2 53908  53.2148 152.6873 0001319  97.4221 262.6921 15.08850908173048
STARLINK-4796           
1 53909U 22119Z   25309.57208369  .00000728  00000+0  63836-4 0  9996
2 53909  53.2158 151.5667 0001419  83.6672 276.4482 15.08841236173080
STARLINK-5056           
1 53910U 22119AA  25310.00003472  .00346235  00000+0  17994-2 0  9994
2 53910  53.2161  66.8538 0000883  31.1408 223.1084 15.79477165  5940
STARLINK-5048           
1 53911U 22119AB  25309.56471885 -.00002905  00000+0 -16452-3 0  9995
2 53911  53.2156 151.5213 0001401  84.4281 275.6871 15.08838031173086
STARLINK-5059           
1 53912U 22119AC  25309.57936738  .00001198  00000+0  93357-4 0  9991
2 53912  53.2147 150.9121 0001520  89.1452 270.9714 15.08832066173099
STARLINK-5053           
1 53913U 22119AD  25309.54629360  .00000023  00000+0  19564-4 0  9993
2 53913  53.2177 151.4082 0001358  92.0004 268.1144 15.08839678173081
STARLINK-5040           
1 53914U 22119AE  25309.60885253  .00001112  00000+0  87976-4 0  9998
2 53914  53.2145 151.0909 0001393  89.4031 270.7121 15.08830183173097
STARLINK-5017           
1 53915U 22119AF  25309.95478787  .00000454  00000+0  46603-4 0  9997
2 53915  53.2151 149.6902 0001574  91.3043 268.8130 15.08853397173143
STARLINK-5051           
1 53916U 22119AG  25309.50761108  .00000810  00000+0  68973-4 0  9991
2 53916  53.2157 131.2505 0001496  97.7992 262.3170 15.08840253173377
STARLINK-5036           
1 53917U 22119AH  25309.94741964  .00001351  00000+0  10296-3 0  9993
2 53917  53.2154 149.6455 0001243  99.5795 260.5338 15.08828257173144
STARLINK-5012           
1 53918U 22119AJ  25309.93636122  .00001108  00000+0  87663-4 0  9995
2 53918  53.2162 149.5778 0001382  91.4377 268.6773 15.08840442173144
STARLINK-5023           
1 53919U 22119AK  25309.93268171 -.00001168  00000+0 -55305-4 0  9997
2 53919  53.2149 149.5523 0001613  88.9275 271.1902 15.08843488173149
STARLINK-5025           
1 53920U 22119AL  25309.95205686  .00000426  00000+0  44838-4 0  9996
2 53920  53.2147 149.6684 0001390  88.2048 271.9104 15.08842418173145
STARLINK-5002           
1 53922U 22119AN  25309.25922394 -.00001201  00000+0 -57424-4 0  9992
2 53922  53.2161 152.4570 0001211  96.1710 263.9420 15.08829176173042
