[{"OBJECT_NAME":"STARLINK-5003","OBJECT_ID":"2022-119V","EPOCH":"2025-11-05T23:10:48.554400","MEAN_MOTION":15.08841951,"ECCENTRICITY":0.00014862,"INCLINATION":53.2149,"RA_OF_ASC_NODE":149.7585,"ARG_OF_PERICENTER":88.1515,"MEAN_ANOMALY":271.9647,"EPHEMERIS_TYPE":0,"CLASSIFICATION_TYPE":"U","NORAD_CAT_ID":53905,"ELEMENT_SET_NO":999,"REV_AT_EPOCH":17314,"BSTAR":5.7261828e-5,"MEAN_MOTION_DOT":6.24e-6,"MEAN_MOTION_DDOT":0},{"OBJECT_NAME":"STARLINK-5054","OBJECT_ID":"2022-119W","EPOCH":"2025-11-04T14:14:07.333152","MEAN_MOTION":15.08840885,"ECCENTRICITY":0.0001335,"INCLINATION":53.2144,"RA_OF_ASC_NODE":155.4168,"ARG_OF_PERICENTER":83.8447,"MEAN_ANOMALY":276.2697,"EPHEMERIS_TYPE":0,"CLASSIFICATION_TYPE":"U","NORAD_CAT_ID":53906,"ELEMENT_SET_NO":999,"REV_AT_EPOCH":17294,"BSTAR":4.3259e-5,"MEAN_MOTION_DOT":4.01e-6,"MEAN_MOTION_DDOT":0},{"OBJECT_NAME":"STARLINK-5057","OBJECT_ID":"2022-119Y","EPOCH":"2025-11-05T07:06:20.943936","MEAN_MOTION":15.08850908,"ECCENTRICITY":0.0001319,"INCLINATION":53.2148,"RA_OF_ASC_NODE":152.6873,"ARG_OF_PERICENTER":97.4221,"MEAN_ANOMALY":262.6921,"EPHEMERIS_TYPE":0,"CLASSIFICATION_TYPE":"U","NORAD_CAT_ID":53908,"ELEMENT_SET_NO":999,"REV_AT_EPOCH":17304,"BSTAR":6.1268828e-5,"MEAN_MOTION_DOT":6.88e-6,"MEAN_MOTION_DDOT":0},{"OBJECT_NAME":"STARLINK-4796","OBJECT_ID":"2022-119Z","EPOCH":"2025-11-05T13:43:48.030816","MEAN_MOTION":15.08841236,"ECCENTRICITY":0.00014198,"INCLINATION":53.2158,"RA_OF_ASC_NODE":151.5667,"ARG_OF_PERICENTER":83.6672,"MEAN_ANOMALY":276.4482,"EPHEMERIS_TYPE":0,"CLASSIFICATION_TYPE":"U","NORAD_CAT_ID":53909,"ELEMENT_SET_NO":999,"REV_AT_EPOCH":17308,"BSTAR":6.3836071e-5,"MEAN_MOTION_DOT":7.28e-6,"MEAN_MOTION_DDOT":0},{"OBJECT_NAME":"STARLINK-5056","OBJECT_ID":"2022-119AA","EPOCH":"2025-11-06T00:00:02.999808","MEAN_MOTION":15.79477165,"ECCENTRICITY":8.832e-5,"INCLINATION":53.2161,"RA_OF_ASC_NODE":66.8538,"ARG_OF_PERICENTER":31.1408,"MEAN_ANOMALY":223.1084,"EPHEMERIS_TYPE":0,"CLASSIFICATION_TYPE":"U","NORAD_CAT_ID":53910,"ELEMENT_SET_NO":999,"REV_AT_EPOCH":594,"BSTAR":0.0017993948,"MEAN_MOTION_DOT":0.00346235,"MEAN_MOTION_DDOT":0},{"OBJECT_NAME":"STARLINK-5048","OBJECT_ID":"2022-119AB","EPOCH":"2025-11-05T13:33:11.708640","MEAN_MOTION":15.08838031,"ECCENTRICITY":0.00014013,"INCLINATION":53.2156,"RA_OF_ASC_NODE":151.5213,"ARG_OF_PERICENTER":84.4281,"MEAN_ANOMALY":275.6871,"EPHEMERIS_TYPE":0,"CLASSIFICATION_TYPE":"U","NORAD_CAT_ID":53911,"ELEMENT_SET_NO":999,"REV_AT_EPOCH":17308,"BSTAR":-0.00016451993,"MEAN_MOTION_DOT":-2.905e-5,"MEAN_MOTION_DDOT":0},{"OBJECT_NAME":"STARLINK-5059","OBJECT_ID":"2022-119AC","EPOCH":"2025-11-05T13:54:17.341632","MEAN_MOTION":15.08832066,"ECCENTRICITY":0.00015205,"INCLINATION":53.2147,"RA_OF_ASC_NODE":150.9121,"ARG_OF_PERICENTER":89.1452,"MEAN_ANOMALY":270.9714,"EPHEMERIS_TYPE":0,"CLASSIFICATION_TYPE":"U","NORAD_CAT_ID":53912,"ELEMENT_SET_NO":999,"REV_AT_EPOCH":17309,"BSTAR":9.3356963e-5,"MEAN_MOTION_DOT":1.198e-5,"MEAN_MOTION_DDOT":0},{"OBJECT_NAME":"STARLINK-5053","OBJECT_ID":"2022-119AD","EPOCH":"2025-11-05T13:06:39.767040","MEAN_MOTION":15.08839678,"ECCENTRICITY":0.00013581,"INCLINATION":53.2177,"RA_OF_ASC_NODE":151.4082,"ARG_OF_PERICENTER":92.0004,"MEAN_ANOMALY":268.1144,"EPHEMERIS_TYPE":0,"CLASSIFICATION_TYPE":"U","NORAD_CAT_ID":53913,"ELEMENT_SET_NO":999,"REV_AT_EPOCH":17308,"BSTAR":1.956396e-5,"MEAN_MOTION_DOT":2.3e-7,"MEAN_MOTION_DDOT":0},{"OBJECT_NAME":"STARLINK-5040","OBJECT_ID":"2022-119AE","EPOCH":"2025-11-05T14:36:44.858592","MEAN_MOTION":15.08830183,"ECCENTRICITY":0.00013936,"INCLINATION":53.2145,"RA_OF_ASC_NODE":151.0909,"ARG_OF_PERICENTER":89.4031,"MEAN_ANOMALY":270.7121,"EPHEMERIS_TYPE":0,"CLASSIFICATION_TYPE":"U","NORAD_CAT_ID":53914,"ELEMENT_SET_NO":999,"REV_AT_EPOCH":17309,"BSTAR":8.7976309e-5,"MEAN_MOTION_DOT":1.112e-5,"MEAN_MOTION_DDOT":0},{"OBJECT_NAME":"STARLINK-5017","OBJECT_ID":"2022-119AF","EPOCH":"2025-11-05T22:54:53.671968","MEAN_MOTION":15.08853397,"ECCENTRICITY":0.00015745,"INCLINATION":53.2151,"RA_OF_ASC_NODE":149.6902,"ARG_OF_PERICENTER":91.3043,"MEAN_ANOMALY":268.813,"EPHEMERIS_TYPE":0,"CLASSIFICATION_TYPE":"U","NORAD_CAT_ID":53915,"ELEMENT_SET_NO":999,"REV_AT_EPOCH":17314,"BSTAR":4.6602987e-5,"MEAN_MOTION_DOT":4.54e-6,"MEAN_MOTION_DDOT":0},{"OBJECT_NAME":"STARLINK-5051","OBJECT_ID":"2022-119AG","EPOCH":"2025-11-05T12:10:57.597312","MEAN_MOTION":15.08840253,"ECCENTRICITY":0.00014969,"INCLINATION":53.2157,"RA_OF_ASC_NODE":131.2505,"ARG_OF_PERICENTER":97.7992,"MEAN_ANOMALY":262.317,"EPHEMERIS_TYPE":0,"CLASSIFICATION_TYPE":"U","NORAD_CAT_ID":53916,"ELEMENT_SET_NO":999,"REV_AT_EPOCH":17337,"BSTAR":6.8972937e-5,"MEAN_MOTION_DOT":8.1e-6,"MEAN_MOTION_DDOT":0},{"OBJECT_NAME":"STARLINK-5036","OBJECT_ID":"2022-119AH","EPOCH":"2025-11-05T22:44:17.056896","MEAN_MOTION":15.08828257,"ECCENTRICITY":0.00012439,"INCLINATION":53.2154,"RA_OF_ASC_NODE":149.6455,"ARG_OF_PERICENTER":99.5795,"MEAN_ANOMALY":260.5338,"EPHEMERIS_TYPE":0,"CLASSIFICATION_TYPE":"U","NORAD_CAT_ID":53917,"ELEMENT_SET_NO":999,"REV_AT_EPOCH":17314,"BSTAR":0.00010295862,"MEAN_MOTION_DOT":1.351e-5,"MEAN_MOTION_DDOT":0},{"OBJECT_NAME":"STARLINK-5012","OBJECT_ID":"2022-119AJ","EPOCH":"2025-11-05T22:28:21.609408","MEAN_MOTION":15.08840442,"ECCENTRICITY":0.00013826,"INCLINATION":53.2162,"RA_OF_ASC_NODE":149.5778,"ARG_OF_PERICENTER":91.4377,"MEAN_ANOMALY":268.6773,"EPHEMERIS_TYPE":0,"CLASSIFICATION_TYPE":"U","NORAD_CAT_ID":53918,"ELEMENT_SET_NO":999,"REV_AT_EPOCH":17314,"BSTAR":8.7663228e-5,"MEAN_MOTION_DOT":1.108e-5,"MEAN_MOTION_DDOT":0},{"OBJECT_NAME":"STARLINK-5023","OBJECT_ID":"2022-119AK","EPOCH":"2025-11-05T22:23:03.699744","MEAN_MOTION":15.08843488,"ECCENTRICITY":0.00016136,"INCLINATION":53.2149,"RA_OF_ASC_NODE":149.5523,"ARG_OF_PERICENTER":88.9275,"MEAN_ANOMALY":271.1902,"EPHEMERIS_TYPE":0,"CLASSIFICATION_TYPE":"U","NORAD_CAT_ID":53919,"ELEMENT_SET_NO":999,"REV_AT_EPOCH":17314,"BSTAR":-5.5304817e-5,"MEAN_MOTION_DOT":-1.168e-5,"MEAN_MOTION_DDOT":0},{"OBJECT_NAME":"STARLINK-5025","OBJECT_ID":"2022-119AL","EPOCH":"2025-11-05T22:50:57.712704","MEAN_MOTION":15.08842418,"ECCENTRICITY":0.00013903,"INCLINATION":53.2147,"RA_OF_ASC_NODE":149.6684,"ARG_OF_PERICENTER":88.2048,"MEAN_ANOMALY":271.9104,"EPHEMERIS_TYPE":0,"CLASSIFICATION_TYPE":"U","NORAD_CAT_ID":53920,"ELEMENT_SET_NO":999,"REV_AT_EPOCH":17314,"BSTAR":4.4838012e-5,"MEAN_MOTION_DOT":4.26e-6,"MEAN_MOTION_DDOT":0},{"OBJECT_NAME":"STARLINK-5002","OBJECT_ID":"2022-119AN","EPOCH":"2025-11-05T06:13:16.948416","MEAN_MOTION":15.08829176,"ECCENTRICITY":0.00012117,"INCLINATION":53.2161,"RA_OF_ASC_NODE":152.457,"ARG_OF_PERICENTER":96.171,"MEAN_ANOMALY":263.942,"EPHEMERIS_TYPE":0,"CLASSIFICATION_TYPE":"U","NORAD_CAT_ID":53922,"ELEMENT_SET_NO":999,"REV_AT_EPOCH":17304,"BSTAR":-5.7423714e-5,"MEAN_MOTION_DOT":-1.201e-5,"MEAN_MOTION_DDOT":0}]
